{
  "type": "FeatureCollection",
  "features": [
    {
      "type": "Feature",
      "properties": {
        "norad_id": 35052,
        "name": "IRIDIUM 33 DEB",
        "group": "iridium-33-debris",
        "lat": 24.637711843100284,
        "lon": -159.69337510400797,
        "alt_km": 758.0804719372309,
        "timestamp": "2025-12-09T04:51:47.877002+00:00",
        "meta_object_name": "IRIDIUM 33 DEB",
        "meta_object_id": "1997-051NY",
        "meta_epoch": "2025-12-08T19:47:53.049120",
        "meta_mean_motion": 14.38486321,
        "meta_eccentricity": 0.0013687,
        "meta_inclination": 86.3313,
        "meta_ra_of_asc_node": 22.1547,
        "meta_arg_of_pericenter": 95.9359,
        "meta_mean_anomaly": 264.34,
        "meta_ephemeris_type": 0,
        "meta_classification_type": "U",
        "meta_norad_cat_id": 35052,
        "meta_element_set_no": 999,
        "meta_rev_at_epoch": 87219,
        "meta_bstar": 0.00035523,
        "meta_mean_motion_dot": 1.105e-05,
        "meta_mean_motion_ddot": 0,
        "tle_line1": "1 35052U 97051NY  25342.82491955  .00001105  00000+0  35523-3 0  9993",
        "tle_line2": "2 35052  86.3313  22.1547 0013687  95.9359 264.3400 14.38486321872193"
      },
      "geometry": {
        "type": "Point",
        "coordinates": [
          -159.69337510400797,
          24.637711843100284
        ]
      }
    },
    {
      "type": "Feature",
      "properties": {
        "norad_id": 35080,
        "name": "IRIDIUM 33 DEB",
        "group": "iridium-33-debris",
        "lat": 86.03558497119852,
        "lon": 127.27255482783062,
        "alt_km": 615.1516521533931,
        "timestamp": "2025-12-09T04:51:47.877012+00:00",
        "meta_object_name": "IRIDIUM 33 DEB",
        "meta_object_id": "1997-051PF",
        "meta_epoch": "2025-12-08T04:12:23.440320",
        "meta_mean_motion": 14.85168488,
        "meta_eccentricity": 0.00618555,
        "meta_inclination": 86.2067,
        "meta_ra_of_asc_node": 54.5559,
        "meta_arg_of_pericenter": 196.3675,
        "meta_mean_anomaly": 163.5554,
        "meta_ephemeris_type": 0,
        "meta_classification_type": "U",
        "meta_norad_cat_id": 35080,
        "meta_element_set_no": 999,
        "meta_rev_at_epoch": 69620,
        "meta_bstar": 0.0097703177,
        "meta_mean_motion_dot": 0.00087525,
        "meta_mean_motion_ddot": 0,
        "tle_line1": "1 35080U 97051PF  25342.17527130  .00087525  00000+0  97703-2 0  9994",
        "tle_line2": "2 35080  86.2067  54.5559 0061855 196.3675 163.5554 14.85168488696207"
      },
      "geometry": {
        "type": "Point",
        "coordinates": [
          127.27255482783062,
          86.03558497119852
        ]
      }
    },
    {
      "type": "Feature",
      "properties": {
        "norad_id": 35297,
        "name": "IRIDIUM 33 DEB",
        "group": "iridium-33-debris",
        "lat": -22.701216291373242,
        "lon": 62.75516925816618,
        "alt_km": 759.1189988810447,
        "timestamp": "2025-12-09T04:51:47.877025+00:00",
        "meta_object_name": "IRIDIUM 33 DEB",
        "meta_object_id": "1997-051PM",
        "meta_epoch": "2025-12-06T00:31:29.302752",
        "meta_mean_motion": 14.45108459,
        "meta_eccentricity": 0.00170329,
        "meta_inclination": 86.3867,
        "meta_ra_of_asc_node": 65.6268,
        "meta_arg_of_pericenter": 161.2449,
        "meta_mean_anomaly": 198.9384,
        "meta_ephemeris_type": 0,
        "meta_classification_type": "U",
        "meta_norad_cat_id": 35297,
        "meta_element_set_no": 999,
        "meta_rev_at_epoch": 70329,
        "meta_bstar": 0.0012426888,
        "meta_mean_motion_dot": 4.371e-05,
        "meta_mean_motion_ddot": 0,
        "tle_line1": "1 35297U 97051PM  25340.02186693  .00004371  00000+0  12427-2 0  9999",
        "tle_line2": "2 35297  86.3867  65.6268 0017032 161.2449 198.9384 14.45108459703293"
      },
      "geometry": {
        "type": "Point",
        "coordinates": [
          62.75516925816618,
          -22.701216291373242
        ]
      }
    },
    {
      "type": "Feature",
      "properties": {
        "norad_id": 35299,
        "name": "IRIDIUM 33 DEB",
        "group": "iridium-33-debris",
        "lat": -35.522190742387494,
        "lon": 32.07018072271501,
        "alt_km": 798.0753726725989,
        "timestamp": "2025-12-09T04:51:47.877046+00:00",
        "meta_object_name": "IRIDIUM 33 DEB",
        "meta_object_id": "1997-051PP",
        "meta_epoch": "2025-12-08T14:43:37.905024",
        "meta_mean_motion": 14.40830501,
        "meta_eccentricity": 0.0058866,
        "meta_inclination": 86.2883,
        "meta_ra_of_asc_node": 34.9826,
        "meta_arg_of_pericenter": 115.5185,
        "meta_mean_anomaly": 36.1002,
        "meta_ephemeris_type": 0,
        "meta_classification_type": "U",
        "meta_norad_cat_id": 35299,
        "meta_element_set_no": 999,
        "meta_rev_at_epoch": 86271,
        "meta_bstar": 0.001279,
        "meta_mean_motion_dot": 4.2e-05,
        "meta_mean_motion_ddot": 0,
        "tle_line1": "1 35299U 97051PP  25342.61363316  .00004200  00000+0  12790-2 0  9991",
        "tle_line2": "2 35299  86.2883  34.9826 0058866 115.5185  36.1002 14.40830501862718"
      },
      "geometry": {
        "type": "Point",
        "coordinates": [
          32.07018072271501,
          -35.522190742387494
        ]
      }
    },
    {
      "type": "Feature",
      "properties": {
        "norad_id": 35480,
        "name": "IRIDIUM 33 DEB",
        "group": "iridium-33-debris",
        "lat": -48.48856812626927,
        "lon": 22.319612559884337,
        "alt_km": 743.9289104855434,
        "timestamp": "2025-12-09T04:51:47.877065+00:00",
        "meta_object_name": "IRIDIUM 33 DEB",
        "meta_object_id": "1997-051QA",
        "meta_epoch": "2025-12-01T21:29:27.496896",
        "meta_mean_motion": 14.49686619,
        "meta_eccentricity": 0.00155495,
        "meta_inclination": 86.3575,
        "meta_ra_of_asc_node": 29.6125,
        "meta_arg_of_pericenter": 136.7189,
        "meta_mean_anomaly": 223.524,
        "meta_ephemeris_type": 0,
        "meta_classification_type": "U",
        "meta_norad_cat_id": 35480,
        "meta_element_set_no": 999,
        "meta_rev_at_epoch": 86874,
        "meta_bstar": 0.000651702,
        "meta_mean_motion_dot": 2.53e-05,
        "meta_mean_motion_ddot": 0,
        "tle_line1": "1 35480U 97051QA  25335.89545714  .00002530  00000+0  65170-3 0  9994",
        "tle_line2": "2 35480  86.3575  29.6125 0015549 136.7189 223.5240 14.49686619868745"
      },
      "geometry": {
        "type": "Point",
        "coordinates": [
          22.319612559884337,
          -48.48856812626927
        ]
      }
    },
    {
      "type": "Feature",
      "properties": {
        "norad_id": 35484,
        "name": "IRIDIUM 33 DEB",
        "group": "iridium-33-debris",
        "lat": -37.64398421222968,
        "lon": 177.21357383401127,
        "alt_km": 576.1169625690463,
        "timestamp": "2025-12-09T04:51:47.877081+00:00",
        "meta_object_name": "IRIDIUM 33 DEB",
        "meta_object_id": "1997-051QE",
        "meta_epoch": "2025-12-08T18:16:45.444576",
        "meta_mean_motion": 14.98255885,
        "meta_eccentricity": 0.0023144,
        "meta_inclination": 86.3606,
        "meta_ra_of_asc_node": 354.6057,
        "meta_arg_of_pericenter": 138.3484,
        "meta_mean_anomaly": 221.9516,
        "meta_ephemeris_type": 0,
        "meta_classification_type": "U",
        "meta_norad_cat_id": 35484,
        "meta_element_set_no": 999,
        "meta_rev_at_epoch": 61956,
        "meta_bstar": 0.0033289,
        "meta_mean_motion_dot": 0.00039967,
        "meta_mean_motion_ddot": 0,
        "tle_line1": "1 35484U 97051QE  25342.76163709  .00039967  00000+0  33289-2 0  9991",
        "tle_line2": "2 35484  86.3606 354.6057 0023144 138.3484 221.9516 14.98255885619568"
      },
      "geometry": {
        "type": "Point",
        "coordinates": [
          177.21357383401127,
          -37.64398421222968
        ]
      }
    },
    {
      "type": "Feature",
      "properties": {
        "norad_id": 35488,
        "name": "IRIDIUM 33 DEB",
        "group": "iridium-33-debris",
        "lat": 16.001634218122344,
        "lon": 121.45229744166042,
        "alt_km": 628.2252010608008,
        "timestamp": "2025-12-09T04:51:47.877097+00:00",
        "meta_object_name": "IRIDIUM 33 DEB",
        "meta_object_id": "1997-051QJ",
        "meta_epoch": "2025-12-08T03:50:11.826240",
        "meta_mean_motion": 14.82876348,
        "meta_eccentricity": 0.00303438,
        "meta_inclination": 86.325,
        "meta_ra_of_asc_node": 302.9889,
        "meta_arg_of_pericenter": 57.3882,
        "meta_mean_anomaly": 303.0263,
        "meta_ephemeris_type": 0,
        "meta_classification_type": "U",
        "meta_norad_cat_id": 35488,
        "meta_element_set_no": 999,
        "meta_rev_at_epoch": 88198,
        "meta_bstar": 0.001993883,
        "meta_mean_motion_dot": 0.00016327,
        "meta_mean_motion_ddot": 0,
        "tle_line1": "1 35488U 97051QJ  25342.15985910  .00016327  00000+0  19939-2 0  9995",
        "tle_line2": "2 35488  86.3250 302.9889 0030343  57.3882 303.0263 14.82876348881981"
      },
      "geometry": {
        "type": "Point",
        "coordinates": [
          121.45229744166042,
          16.001634218122344
        ]
      }
    }
  ]
}